STARLINK-35008          
1 65408C 25192E   26101.25951389 -.00001782  00000+0 -60062-4 0  1016
2 65408  53.1593  81.0758 0001352  85.1979 169.9848 15.30185073    19
STARLINK-35022          
1 65409C 25192F   26101.24006944 -.00006558  00000+0 -22106-3 0  1016
2 65409  53.1595  81.0304 0001445  83.8383 133.9749 15.30188902    11
STARLINK-35024          
1 65410C 25192G   26101.23312500 -.00029328  00000+0 -98870-3 0  1016
2 65410  53.1599  81.0963 0001378  83.7061  78.3779 15.30198038    11
STARLINK-34983          
1 65411C 25192H   26101.28104167 -.00004636  00000+0 -15625-3 0  1012
2 65411  53.1596  80.7704 0001411  82.6711  35.8697 15.30190341    12
STARLINK-34992          
1 65412C 25192J   26101.28451389  .00004284  00000+0  14440-3 0  1015
2 65412  53.1593  80.7195 0001503  82.4429  72.6874 15.30185207    11
STARLINK-35003          
1 65413C 25192K   26101.25465278 -.00013406  00000+0 -45188-3 0  1016
2 65413  53.1571  81.4151 0001484  95.0869 330.4434 15.30194969    16
STARLINK-34238          
1 65415C 25192M   26101.30256944  .00000736  00000+0  24802-4 0  1013
2 65415  53.1572  81.1350 0001416  84.2337 274.4930 15.30185990    14
STARLINK-34855          
1 65416C 25192N   26101.29701389 -.00022216  00000+0 -74834-3 0  1018
2 65416  53.1583  81.2893 0001413  83.4271 180.6458 15.30220501    16
STARLINK-34255          
1 65417C 25192P   26101.23590278 -.00023686  00000+0 -79848-3 0  1018
2 65417  53.1569  81.3727 0001352  84.7922 301.3799 15.30196354    15
STARLINK-34997          
1 65418C 25192Q   26101.11784722 -.00020939  00000+0 -70593-3 0  1011
2 65418  53.1592  81.7446 0001943  86.3112 102.2308 15.30190895    17
STARLINK-35085          
1 65419C 25192R   26101.27756944 -.00038969  00000+0 -13481-2 0  1018
2 65419  53.1589  80.4147 0001338  82.2854 206.2028 15.29365300    11
STARLINK-35138          
1 65420C 25192S   26101.29631944  .00008561  00000+0  28855-3 0  1019
2 65420  53.1602  80.7843 0001411  80.3788  81.6472 15.30184503    16
STARLINK-35146          
1 65421C 25192T   26101.24840278  .00004895  00000+0  16502-3 0  1019
2 65421  53.1597  80.9773 0001615  80.2726 189.1944 15.30183448    16
STARLINK-35074          
1 65422C 25192U   26101.16090278 -.00031038  00000+0 -10463-2 0  1018
2 65422  53.1588  81.5723 0001383  85.7659 322.6368 15.30202026    14
STARLINK-34837          
1 65423C 25192V   26101.10743056 -.00026353  00000+0 -88820-3 0  1019
2 65423  53.1598  81.6886 0001420  89.4256  94.0362 15.30204028    11
STARLINK-34670          
1 65424C 25192W   26101.30326389  .00021499  00000+0  72369-3 0  1013
2 65424  53.1597  80.6870 0001564  86.5113 142.8855 15.30220510    15
STARLINK-35095          
1 65425C 25192X   26101.29423611  .00024158  00000+0  81429-3 0  1010
2 65425  53.1581  81.2885 0001439  78.8720 175.7616 15.30176251    13
STARLINK-34883          
1 65426C 25192Y   26101.27409722  .00139070  00000+0  46820-2 0  1011
2 65426  53.1592  80.7536 0002246  86.7392  16.7917 15.30156883    10
STARLINK-34916          
1 65427C 25192Z   26101.27548611  .00009702  00000+0  32714-3 0  1019
2 65427  53.1595  80.7812 0001453  86.5920   7.1591 15.30170358    10
STARLINK-35004          
1 65428C 25192AA  26101.21298611 -.00021864  00000+0 -73705-3 0  1016
2 65428  53.1567  81.5115 0001300  84.8569 157.5568 15.30195841    14
STARLINK-35014          
1 65429C 25192AB  26101.28034722  .00000082  00000+0  27745-5 0  1017
2 65429  53.1570  81.2584 0001372  85.6770 138.9394 15.30188105    13
STARLINK-35025          
1 65430C 25192AC  26101.28798611 -.00011572  00000+0 -38997-3 0  1010
2 65430  53.1575  81.2696 0001003  59.7190 183.7077 15.30201589    11
STARLINK-35034          
1 65431C 25192AD  26101.27687500 -.00000690  00000+0 -23270-4 0  1012
2 65431  53.1572  81.1574 0001213  81.8520 181.7897 15.30183977    17
STARLINK-35142          
1 65434C 25194A   26101.10743056  .00003536  00000+0  24548-3 0  1016
2 65434  97.6040 316.2648 0002589  92.2559 199.0170 15.05654547    16
STARLINK-34978          
1 65435C 25194B   26101.25256944 -.00057605  00000+0 -39986-2 0  1017
2 65435  97.6053 316.5344 0001626  84.9539 167.4451 15.05692903    13
STARLINK-35043          
1 65436C 25194C   26101.28381944 -.00046575  00000+0 -36331-2 0  1015
2 65436  97.6038 317.0955 0003089  65.8969 344.1580 15.01282047    18
STARLINK-35080          
1 65437C 25194D   26101.30395833 -.00038149  00000+0 -26484-2 0  1017
2 65437  97.6043 316.5729 0001887  87.3103  53.4106 15.05678321    13
STARLINK-35068          
1 65438C 25194E   26101.29284722 -.00041691  00000+0 -28964-2 0  1011
2 65438  97.6048 316.4526 0002510  90.5878  95.1608 15.05652290    19
STARLINK-35045          
1 65439C 25194F   26101.24909722 -.00062258  00000+0 -43251-2 0  1019
2 65439  97.6034 316.4982 0001723  70.5062  88.1744 15.05664550    14
STARLINK-35050          
1 65440C 25194G   26101.23034722 -.00062134  00000+0 -43144-2 0  1013
2 65440  97.6056 316.5254 0002320  90.6819  71.3634 15.05681500    16
STARLINK-35065          
1 65441C 25194H   26101.20743056 -.00060595  00000+0 -42076-2 0  1010
2 65441  97.6033 316.3938 0002349  91.8700  51.0849 15.05679659    17
STARLINK-34679          
1 65442C 25194J   26101.21993056 -.00058457  00000+0 -40596-2 0  1018
2 65442  97.6050 316.4961 0001953  85.9475 334.6921 15.05674935    10
STARLINK-34678          
1 65443C 25194K   26101.19423611 -.00057920  00000+0 -40216-2 0  1014
2 65443  97.6029 316.3939 0002395  91.5500   9.9206 15.05681293    17
STARLINK-35049          
1 65444C 25194L   26101.16993056 -.00045700  00000+0 -31739-2 0  1010
2 65444  97.6028 316.4006 0001778  90.1109 314.6095 15.05666599    11
STARLINK-35029          
1 65445C 25194M   26101.26993056 -.00052068  00000+0 -36157-2 0  1016
2 65445  97.6030 316.5122 0001319  76.4628 180.0259 15.05675500    18
STARLINK-34991          
1 65446C 25194N   26101.29631944 -.00041322  00000+0 -28698-2 0  1017
2 65446  97.6041 316.5585 0001863  89.8727 354.5638 15.05665190    19
STARLINK-34920          
1 65447C 25194P   26101.22062500 -.00059747  00000+0 -41484-2 0  1015
2 65447  97.6055 316.5092 0002151  91.9415   2.3175 15.05682781    16
STARLINK-35030          
1 65448C 25194Q   26101.25187500 -.00059817  00000+0 -41541-2 0  1019
2 65448  97.6026 316.4689 0002098  90.3267   8.3704 15.05675612    13
STARLINK-35009          
1 65449C 25194R   26101.29909722 -.00038896  00000+0 -27015-2 0  1016
2 65449  97.6051 316.6070 0002426  89.4060 115.0618 15.05660212    13
STARLINK-34970          
1 65450C 25194S   26101.19423611 -.00048507  00000+0 -33680-2 0  1010
2 65450  97.6045 316.3620 0002169  91.1775 295.3101 15.05676751    17
STARLINK-35039          
1 65451C 25194T   26101.12201389 -.00017540  00000+0 -12179-2 0  1013
2 65451  97.6029 316.3599 0001822  85.8367  74.3532 15.05661294    16
STARLINK-35084          
1 65452C 25194U   26101.28590278 -.00043221  00000+0 -30031-2 0  1011
2 65452  97.6027 316.4917 0002425  80.3338 172.6796 15.05646521    18
STARLINK-34988          
1 65453C 25194V   26101.27618056 -.00048279  00000+0 -37660-2 0  1019
2 65453  97.6037 317.3947 0002562  58.0661 317.0632 15.01283897    19
STARLINK-35059          
1 65454C 25194W   26101.28520833 -.00045165  00000+0 -35266-2 0  1017
2 65454  97.6038 316.9227 0002753  63.0684 343.6024 15.01244629    10
STARLINK-34728          
1 65455C 25194X   26101.28520833 -.00044009  00000+0 -30564-2 0  1010
2 65455  97.6037 316.4649 0002731  87.3926 101.8907 15.05664034    11
STARLINK-35005          
1 65456C 25194Y   26101.28937500 -.00044970  00000+0 -31230-2 0  1012
2 65456  97.6052 316.5912 0002439  92.4364  44.3573 15.05667342    16
STARLINK-35076          
1 65457C 25194Z   26101.29979167 -.00034146  00000+0 -23714-2 0  1011
2 65457  97.6029 316.4922 0002515  89.9615 208.3087 15.05661962    10
STARLINK-34784          
1 65458C 25195A   26101.27409722 -.00021463  00000+0 -72348-3 0  1012
2 65458  53.1593 106.6190 0001351  83.3606 344.7785 15.30197287    17
STARLINK-34867          
1 65459C 25195B   26101.11645833 -.00014413  00000+0 -48561-3 0  1018
2 65459  53.1594 107.5656 0001290  82.7227  85.9151 15.30208642    19
STARLINK-34850          
1 65460C 25195C   26101.27756944 -.00011111  00000+0 -37462-3 0  1013
2 65460  53.1575 107.0827 0001273  85.9399 117.0464 15.30184753    11
STARLINK-35159          
1 65461C 25195D   26101.17062500 -.00025418  00000+0 -85674-3 0  1014
2 65461  53.1581 107.5236 0001232  86.8069 275.8121 15.30202211    10
STARLINK-35180          
1 65462C 25195E   26101.27618056 -.00037075  00000+0 -12497-2 0  1013
2 65462  53.1581 106.9287 0001311  84.7809 191.9810 15.30207028    11
STARLINK-35111          
1 65463C 25195F   26101.26854167 -.00016643  00000+0 -56101-3 0  1017
2 65463  53.1581 106.5820 0001399  83.7878 342.8199 15.30194595    13
STARLINK-35107          
1 65464C 25195G   26101.27687500 -.00011229  00000+0 -37856-3 0  1015
2 65464  53.1572 106.4683 0001361  85.4748  67.7763 15.30189675    17
STARLINK-35169          
1 65465C 25195H   26101.11645833 -.00018131  00000+0 -61119-3 0  1010
2 65465  53.1580 107.7389 0001332  88.0807 353.4325 15.30194504    13
STARLINK-35027          
1 65466C 25195J   26101.29631944 -.00016893  00000+0 -56942-3 0  1019
2 65466  53.1584 106.7989 0001341  84.7265 320.4856 15.30195485    16
STARLINK-34816          
1 65467C 25195K   26101.29770833 -.00007213  00000+0 -24321-3 0  1013
2 65467  53.1571 107.0449 0001328  85.5128 199.3891 15.30182122    16
STARLINK-35033          
1 65468C 25195L   26101.11229167 -.00016895  00000+0 -56943-3 0  1015
2 65468  53.1578 107.2714 0001464  82.5820 220.2582 15.30199731    13
STARLINK-34924          
1 65469C 25195M   26101.23173611 -.00026012  00000+0 -87746-3 0  1018
2 65469  53.1579 107.2840 0001405  86.4336 229.8924 15.30176499    16
